start=new Date('2022-04-14T00:00:00.000Z').valueOf();
sats=[{"MEAN_MOTION_DDOT":"0.0000000000000","CLASSIFICATION_TYPE":"U","EPOCH":"2022-04-13T22:00:00.999936","SITE":"AFETR","LAUNCH_DATE":"2021-12-02","INCLINATION":"53.2172","TLE_LINE2":"2 49752  53.2172  59.6683 0001637  65.6859 250.6503 15.08867008  3627","BSTAR":"-0.00108510000000","CENTER_NAME":"EARTH","EPHEMERIS_TYPE":"0","ECCENTRICITY":"0.00016370","DECAY_DATE":null,"REF_FRAME":"TEME","MEAN_MOTION":"15.08867008","MEAN_ELEMENT_THEORY":"SGP4","ELEMENT_SET_NO":"999","PERIAPSIS":"538.530","SEMIMAJOR_AXIS":"6917.798","PERIOD":"95.436","ARG_OF_PERICENTER":"65.6859","OBJECT_ID":"2021-115AE","FILE":"3400454","TLE_LINE1":"1 49752U 21115AE  22103.91667824 -.00017529  00000-0 -10851-2 0  9991","MEAN_ANOMALY":"250.6503","OBJECT_NAME":"STARLINK-3209","MEAN_MOTION_DOT":"-0.00017529","REV_AT_EPOCH":"362","COUNTRY_CODE":"US","RA_OF_ASC_NODE":"59.6683","TIME_SYSTEM":"UTC","NORAD_CAT_ID":"49752","OBJECT_TYPE":"PAYLOAD","APOAPSIS":"540.795","GP_ID":"201177456","RCS_SIZE":"LARGE"},{"ELEMENT_SET_NO":"999","MEAN_ELEMENT_THEORY":"SGP4","MEAN_MOTION":"15.08874874","FILE":"3400454","ARG_OF_PERICENTER":"48.8980","OBJECT_ID":"2021-115AF","PERIAPSIS":"538.112","SEMIMAJOR_AXIS":"6917.774","PERIOD":"95.435","TLE_LINE1":"1 49753U 21115AF  22103.91667824 -.00021564  00000-0 -13395-2 0  9992","MEAN_MOTION_DOT":"-0.00021564","OBJECT_NAME":"STARLINK-3200","MEAN_ANOMALY":"12.4061","REV_AT_EPOCH":"360","COUNTRY_CODE":"US","OBJECT_TYPE":"PAYLOAD","NORAD_CAT_ID":"49753","TIME_SYSTEM":"UTC","RA_OF_ASC_NODE":"69.6450","RCS_SIZE":"LARGE","GP_ID":"201177707","APOAPSIS":"541.166","CLASSIFICATION_TYPE":"U","MEAN_MOTION_DDOT":"0.0000000000000","LAUNCH_DATE":"2021-12-02","SITE":"AFETR","EPOCH":"2022-04-13T22:00:00.999936","INCLINATION":"53.2232","EPHEMERIS_TYPE":"0","CENTER_NAME":"EARTH","TLE_LINE2":"2 49753  53.2232  69.6450 0002207  48.8980  12.4061 15.08874874  3600","BSTAR":"-0.00133950000000","REF_FRAME":"TEME","DECAY_DATE":null,"ECCENTRICITY":"0.00022070"},{"FILE":"3400454","PERIOD":"95.025","PERIAPSIS":"515.098","SEMIMAJOR_AXIS":"6897.937","ARG_OF_PERICENTER":"281.7787","OBJECT_ID":"2021-115AG","ELEMENT_SET_NO":"999","MEAN_MOTION":"15.15388165","MEAN_ELEMENT_THEORY":"SGP4","OBJECT_NAME":"STARLINK-3193","MEAN_ANOMALY":"270.9089","MEAN_MOTION_DOT":"-0.00241250","TLE_LINE1":"1 49754U 21115AG  22103.91667824 -.00241250  00000-0 -13029-1 0  9992","COUNTRY_CODE":"US","REV_AT_EPOCH":"363","GP_ID":"201176455","RCS_SIZE":"LARGE","APOAPSIS":"524.507","NORAD_CAT_ID":"49754","OBJECT_TYPE":"PAYLOAD","RA_OF_ASC_NODE":"59.9789","TIME_SYSTEM":"UTC","SITE":"AFETR","LAUNCH_DATE":"2021-12-02","EPOCH":"2022-04-13T22:00:00.999936","CLASSIFICATION_TYPE":"U","MEAN_MOTION_DDOT":"0.0000000000000","INCLINATION":"53.2175","REF_FRAME":"TEME","ECCENTRICITY":"0.00068200","DECAY_DATE":null,"CENTER_NAME":"EARTH","EPHEMERIS_TYPE":"0","TLE_LINE2":"2 49754  53.2175  59.9789 0006820 281.7787 270.9089 15.15388165  3637","BSTAR":"-0.01302900000000"},{"MEAN_ELEMENT_THEORY":"SGP4","MEAN_MOTION":"15.08848479","ELEMENT_SET_NO":"999","ARG_OF_PERICENTER":"35.0523","OBJECT_ID":"2021-115AH","PERIAPSIS":"537.928","SEMIMAJOR_AXIS":"6917.854","PERIOD":"95.437","FILE":"3400454","TLE_LINE1":"1 49755U 21115AH  22103.91667824  .00026331  00000-0  16659-2 0  9995","MEAN_MOTION_DOT":"0.00026331","MEAN_ANOMALY":"346.2148","OBJECT_NAME":"STARLINK-3210","REV_AT_EPOCH":"362","COUNTRY_CODE":"US","RA_OF_ASC_NODE":"69.6491","TIME_SYSTEM":"UTC","OBJECT_TYPE":"PAYLOAD","NORAD_CAT_ID":"49755","APOAPSIS":"541.511","RCS_SIZE":"LARGE","GP_ID":"201176705","MEAN_MOTION_DDOT":"0.0000000000000","CLASSIFICATION_TYPE":"U","EPOCH":"2022-04-13T22:00:00.999936","LAUNCH_DATE":"2021-12-02","SITE":"AFETR","INCLINATION":"53.2175","BSTAR":"0.00166590000000","TLE_LINE2":"2 49755  53.2175  69.6491 0002590  35.0523 346.2148 15.08848479  3627","EPHEMERIS_TYPE":"0","CENTER_NAME":"EARTH","DECAY_DATE":null,"ECCENTRICITY":"0.00025900","REF_FRAME":"TEME"},{"OBJECT_TYPE":"PAYLOAD","NORAD_CAT_ID":"49756","TIME_SYSTEM":"UTC","RA_OF_ASC_NODE":"59.6711","RCS_SIZE":"LARGE","GP_ID":"201176956","APOAPSIS":"540.808","REV_AT_EPOCH":"362","COUNTRY_CODE":"US","TLE_LINE1":"1 49756U 21115AJ  22103.91667824  .00011370  00000-0  73118-3 0  9997","MEAN_MOTION_DOT":"0.00011370","OBJECT_NAME":"STARLINK-3207","MEAN_ANOMALY":"185.4155","ELEMENT_SET_NO":"999","MEAN_ELEMENT_THEORY":"SGP4","MEAN_MOTION":"15.08847426","FILE":"3400454","ARG_OF_PERICENTER":"70.9157","OBJECT_ID":"2021-115AJ","PERIOD":"95.437","PERIAPSIS":"538.637","SEMIMAJOR_AXIS":"6917.858","EPHEMERIS_TYPE":"0","CENTER_NAME":"EARTH","BSTAR":"0.00073118000000","TLE_LINE2":"2 49756  53.2190  59.6711 0001569  70.9157 185.4155 15.08847426  3627","REF_FRAME":"TEME","DECAY_DATE":null,"ECCENTRICITY":"0.00015690","INCLINATION":"53.2190","CLASSIFICATION_TYPE":"U","MEAN_MOTION_DDOT":"0.0000000000000","LAUNCH_DATE":"2021-12-02","SITE":"AFETR","EPOCH":"2022-04-13T22:00:00.999936"},{"EPOCH":"2022-04-13T22:00:00.999936","SITE":"AFETR","LAUNCH_DATE":"2021-12-02","MEAN_MOTION_DDOT":"0.0000000000000","CLASSIFICATION_TYPE":"U","INCLINATION":"53.2168","DECAY_DATE":null,"ECCENTRICITY":"0.00015910","REF_FRAME":"TEME","BSTAR":"0.00067758000000","TLE_LINE2":"2 49757  53.2168  59.6778 0001591  62.1940 234.1396 15.08843434  3628","CENTER_NAME":"EARTH","EPHEMERIS_TYPE":"0","PERIAPSIS":"538.634","SEMIMAJOR_AXIS":"6917.870","PERIOD":"95.437","ARG_OF_PERICENTER":"62.1940","OBJECT_ID":"2021-115AK","FILE":"3400454","MEAN_MOTION":"15.08843434","MEAN_ELEMENT_THEORY":"SGP4","ELEMENT_SET_NO":"999","MEAN_ANOMALY":"234.1396","OBJECT_NAME":"STARLINK-3197","MEAN_MOTION_DOT":"0.00010513","TLE_LINE1":"1 49757U 21115AK  22103.91667824  .00010513  00000-0  67758-3 0  9999","COUNTRY_CODE":"US","REV_AT_EPOCH":"362","APOAPSIS":"540.836","GP_ID":"201177207","RCS_SIZE":"LARGE","RA_OF_ASC_NODE":"59.6778","TIME_SYSTEM":"UTC","NORAD_CAT_ID":"49757","OBJECT_TYPE":"PAYLOAD"},{"BSTAR":"0.00070961000000","TLE_LINE2":"2 49758  53.2181  59.6681 0001677  65.8856 150.3696 15.08853861  3614","CENTER_NAME":"EARTH","EPHEMERIS_TYPE":"0","ECCENTRICITY":"0.00016770","DECAY_DATE":null,"REF_FRAME":"TEME","MEAN_MOTION_DDOT":"0.0000000000000","CLASSIFICATION_TYPE":"U","EPOCH":"2022-04-13T22:00:00.999936","SITE":"AFETR","LAUNCH_DATE":"2021-12-02","INCLINATION":"53.2181","REV_AT_EPOCH":"361","COUNTRY_CODE":"US","RA_OF_ASC_NODE":"59.6681","TIME_SYSTEM":"UTC","NORAD_CAT_ID":"49758","OBJECT_TYPE":"PAYLOAD","APOAPSIS":"540.863","GP_ID":"201175955","RCS_SIZE":"LARGE","MEAN_MOTION":"15.08853861","MEAN_ELEMENT_THEORY":"SGP4","ELEMENT_SET_NO":"999","PERIOD":"95.437","PERIAPSIS":"538.543","SEMIMAJOR_AXIS":"6917.838","ARG_OF_PERICENTER":"65.8856","OBJECT_ID":"2021-115AL","FILE":"3400454","TLE_LINE1":"1 49758U 21115AL  22103.91667824  .00011028  00000-0  70961-3 0  9992","OBJECT_NAME":"STARLINK-3194","MEAN_ANOMALY":"150.3696","MEAN_MOTION_DOT":"0.00011028"},{"INCLINATION":"53.2183","CLASSIFICATION_TYPE":"U","MEAN_MOTION_DDOT":"0.0000000000000","LAUNCH_DATE":"2021-12-02","SITE":"AFETR","EPOCH":"2022-04-13T22:00:00.999936","EPHEMERIS_TYPE":"0","CENTER_NAME":"EARTH","BSTAR":"-0.00205160000000","TLE_LINE2":"2 49759  53.2183  59.6688 0001677  60.8831 215.4025 15.08887014  3629","REF_FRAME":"TEME","ECCENTRICITY":"0.00016770","DECAY_DATE":null,"TLE_LINE1":"1 49759U 21115AM  22103.91667824 -.00032833  00000-0 -20516-2 0  9992","MEAN_MOTION_DOT":"-0.00032833","MEAN_ANOMALY":"215.4025","OBJECT_NAME":"STARLINK-3204","ELEMENT_SET_NO":"999","MEAN_ELEMENT_THEORY":"SGP4","MEAN_MOTION":"15.08887014","FILE":"3400454","ARG_OF_PERICENTER":"60.8831","OBJECT_ID":"2021-115AM","PERIAPSIS":"538.442","PERIOD":"95.435","SEMIMAJOR_AXIS":"6917.737","OBJECT_TYPE":"PAYLOAD","NORAD_CAT_ID":"49759","TIME_SYSTEM":"UTC","RA_OF_ASC_NODE":"59.6688","RCS_SIZE":"LARGE","GP_ID":"201176205","APOAPSIS":"540.762","REV_AT_EPOCH":"362","COUNTRY_CODE":"US"},{"BSTAR":"-0.00156770000000","TLE_LINE2":"2 49760  53.2198  59.6335 0001762  54.9212 121.3656 15.08883951  3629","CENTER_NAME":"EARTH","EPHEMERIS_TYPE":"0","ECCENTRICITY":"0.00017620","DECAY_DATE":null,"REF_FRAME":"TEME","INCLINATION":"53.2198","MEAN_MOTION_DDOT":"0.0000000000000","CLASSIFICATION_TYPE":"U","EPOCH":"2022-04-13T22:00:00.999936","SITE":"AFETR","LAUNCH_DATE":"2021-12-02","RA_OF_ASC_NODE":"59.6335","TIME_SYSTEM":"UTC","NORAD_CAT_ID":"49760","OBJECT_TYPE":"PAYLOAD","APOAPSIS":"540.830","GP_ID":"201177457","RCS_SIZE":"LARGE","REV_AT_EPOCH":"362","COUNTRY_CODE":"US","TLE_LINE1":"1 49760U 21115AN  22103.91667824 -.00025182  00000-0 -15677-2 0  9995","MEAN_ANOMALY":"121.3656","OBJECT_NAME":"STARLINK-3199","MEAN_MOTION_DOT":"-0.00025182","MEAN_MOTION":"15.08883951","MEAN_ELEMENT_THEORY":"SGP4","ELEMENT_SET_NO":"999","SEMIMAJOR_AXIS":"6917.746","PERIAPSIS":"538.392","PERIOD":"95.435","ARG_OF_PERICENTER":"54.9212","OBJECT_ID":"2021-115AN","FILE":"3400454"},{"COUNTRY_CODE":"US","REV_AT_EPOCH":"363","APOAPSIS":"540.735","RCS_SIZE":"LARGE","GP_ID":"201177708","TIME_SYSTEM":"UTC","RA_OF_ASC_NODE":"59.6702","OBJECT_TYPE":"PAYLOAD","NORAD_CAT_ID":"49761","OBJECT_ID":"2021-115AP","ARG_OF_PERICENTER":"66.0061","PERIAPSIS":"538.497","PERIOD":"95.435","SEMIMAJOR_AXIS":"6917.751","FILE":"3400454","MEAN_ELEMENT_THEORY":"SGP4","MEAN_MOTION":"15.08882340","ELEMENT_SET_NO":"999","MEAN_MOTION_DOT":"-0.00038094","MEAN_ANOMALY":"170.3232","OBJECT_NAME":"STARLINK-3203","TLE_LINE1":"1 49761U 21115AP  22103.91667824 -.00038094  00000-0 -23853-2 0  9997","DECAY_DATE":null,"ECCENTRICITY":"0.00016170","REF_FRAME":"TEME","BSTAR":"-0.00238530000000","TLE_LINE2":"2 49761  53.2189  59.6702 0001617  66.0061 170.3232 15.08882340  3639","EPHEMERIS_TYPE":"0","CENTER_NAME":"EARTH","EPOCH":"2022-04-13T22:00:00.999936","LAUNCH_DATE":"2021-12-02","SITE":"AFETR","MEAN_MOTION_DDOT":"0.0000000000000","CLASSIFICATION_TYPE":"U","INCLINATION":"53.2189"}];
